{"type":"FeatureCollection","features":[{"type":"Feature","geometry":{"type":"Polygon","coordinates":[[[127.067589,37.500363],[127.103973,37.500363],[127.103973,37.521939],[127.067589,37.521939],[127.067589,37.500363]]]},"properties":{"name":"1171010100","count":2332,"fallback":true}},{"type":"Feature","geometry":{"type":"Polygon","coordinates":[[[127.067479,37.508738],[127.11686,37.508738],[127.11686,37.541408],[127.067479,37.541408],[127.067479,37.508738]]]},"properties":{"name":"1171010200","count":144,"fallback":true}},{"type":"Feature","geometry":{"type":"Polygon","coordinates":[[[127.102974,37.523905],[127.123437,37.523905],[127.123437,37.54317],[127.102974,37.54317],[127.102974,37.523905]]]},"properties":{"name":"1171010300","count":3619,"fallback":true}},{"type":"Feature","geometry":{"type":"Polygon","coordinates":[[[127.103973,37.497842],[127.12369,37.497842],[127.12369,37.511984],[127.103973,37.511984],[127.103973,37.497842]]]},"properties":{"name":"1171010400","count":2253,"fallback":true}},{"type":"Feature","geometry":{"type":"Polygon","coordinates":[[[127.09657,37.496908],[127.111602,37.496908],[127.111602,37.508738],[127.09657,37.508738],[127.09657,37.496908]]]},"properties":{"name":"1171010500","count":2379,"fallback":true}},{"type":"Feature","geometry":{"type":"Polygon","coordinates":[[[127.08211,37.496074],[127.097386,37.496074],[127.097386,37.507535],[127.08211,37.507535],[127.08211,37.496074]]]},"properties":{"name":"1171010600","count":2169,"fallback":true}},{"type":"Feature","geometry":{"type":"Polygon","coordinates":[[[127.09584,37.483714],[127.139367,37.483714],[127.139367,37.504829],[127.09584,37.504829],[127.09584,37.483714]]]},"properties":{"name":"1171010700","count":2591,"fallback":true}},{"type":"Feature","geometry":{"type":"Polygon","coordinates":[[[127.109264,37.476417],[127.13819,37.476417],[127.13819,37.494368],[127.109264,37.494368],[127.109264,37.476417]]]},"properties":{"name":"1171010800","count":2087,"fallback":true}},{"type":"Feature","geometry":{"type":"Polygon","coordinates":[[[127.116031,37.466518],[127.157316,37.466518],[127.157316,37.49061],[127.116031,37.49061],[127.116031,37.466518]]]},"properties":{"name":"1171010900","count":1770,"fallback":true}},{"type":"Feature","geometry":{"type":"Polygon","coordinates":[[[127.106657,37.504829],[127.145446,37.504829],[127.145446,37.527873],[127.106657,37.527873],[127.106657,37.504829]]]},"properties":{"name":"1171011100","count":3199,"fallback":true}},{"type":"Feature","geometry":{"type":"Polygon","coordinates":[[[127.12369,37.49565],[127.144103,37.49565],[127.144103,37.511807],[127.12369,37.511807],[127.12369,37.49565]]]},"properties":{"name":"1171011200","count":1821,"fallback":true}},{"type":"Feature","geometry":{"type":"Polygon","coordinates":[[[127.135571,37.481459],[127.158506,37.481459],[127.158506,37.499824],[127.135571,37.499824],[127.135571,37.481459]]]},"properties":{"name":"1171011300","count":2527,"fallback":true}},{"type":"Feature","geometry":{"type":"Polygon","coordinates":[[[127.141659,37.490175],[127.161431,37.490175],[127.161431,37.504743],[127.141659,37.504743],[127.141659,37.490175]]]},"properties":{"name":"1171011400","count":4262,"fallback":true}}]}